OBJECT B                
1 51825U 22019B   24356.82796612  .00022448  00000+0  75065-3 0  9991
2 51825  97.4084  66.7477 0010901 299.0854  60.9295 15.30946462155844
